OBJECT B                
1 51825U 22019B   26008.53734537  .00045448  00000+0  67962-3 0  9995
2 51825  97.3639  93.8857 0007700 359.0800   1.0438 15.54845686214802
